COSMOS 2426 (717)       
1 29671U 06062B   19086.46550404  .00000030  00000-0  10000-3 0  9998
2 29671  65.1622 283.0575 0016915 158.3897  11.2548  2.13102950 95358
COSMOS 2433 (720)       
1 32275U 07052A   19087.45544803 -.00000041  00000-0  10000-3 0  9991
2 32275  65.8213  43.8372 0004738 280.9302 264.5622  2.13104424 88889
COSMOS 2432 (719)       
1 32276U 07052B   19086.69209353 -.00000040  00000-0  10000-3 0  9994
2 32276  65.8313  43.9437 0013192 326.9799 304.1524  2.13103834 88863
COSMOS 2434 (721)       
1 32393U 07065A   19087.37428918  .00000037  00000-0  00000+0 0  9994
2 32393  64.7573 281.7615 0005382  87.9344 282.7918  2.13102967 87594
COSMOS 2436 (723)       
1 32395U 07065C   19086.75856640  .00000033  00000-0  10000-3 0  9995
2 32395  64.7707 281.8361 0017074   6.4502 303.7926  2.13104355 87504
COSMOS 2456 (730)       
1 36111U 09070A   19087.02036049 -.00000025  00000-0  00000+0 0  9994
2 36111  64.1947 161.3999 0004680 313.6382 318.4788  2.13102771 72245
COSMOS 2457 (733)       
1 36112U 09070B   19087.40462791 -.00000026  00000-0  00000+0 0  9995
2 36112  64.1776 161.2911 0005593 172.0030 160.3889  2.13101512 72259
COSMOS 2459 (731)       
1 36400U 10007A   19086.60394848 -.00000042  00000-0  10000-3 0  9998
2 36400  65.7259  42.8910 0028124 347.3306 121.5199  2.13102194 70598
COSMOS 2461 (735)       
1 36401U 10007B   19087.24804836 -.00000043  00000-0  10000-3 0  9994
2 36401  65.7196  42.8427 0006043  41.9526 111.5608  2.13102167 70605
COSMOS 2460 (732)       
1 36402U 10007C   19086.89066491 -.00000042  00000-0  10000-3 0  9991
2 36402  65.7095  42.8195 0002597 309.6156 329.8081  2.13101528 70596
COSMOS 2464 (736)       
1 37139U 10041C   19087.10586411  .00000035  00000-0  00000+0 0  9997
2 37139  64.3624 281.4345 0026508  15.7173  15.9557  2.13100609 66671
COSMOS 2474 (742)       
1 37829U 11055A   19086.79699064 -.00000025  00000-0  00000-0 0  9993
2 37829  64.5173 162.2453 0009119 247.8597  69.7121  2.13101850 58237
COSMOS 2476 (744)       
1 37867U 11064A   19087.24688806 -.00000026  00000-0  00000+0 0  9998
2 37867  64.4976 162.2844 0019091 240.9559 107.8814  2.13101955 57592
COSMOS 2477 (745)       
1 37868U 11064B   19087.35841464 -.00000026  00000-0  00000+0 0  9992
2 37868  64.5067 162.3314 0016799 242.5076  10.6254  2.13101686 57558
COSMOS 2475 (743)       
1 37869U 11064C   19086.94975527 -.00000025  00000-0  00000+0 0  9994
2 37869  64.5140 162.3405 0020972 265.5049 351.1193  2.13101801 57559
COSMOS 2485 (747)       
1 39155U 13019A   19086.85119726 -.00000025  00000-0  00000-0 0  9998
2 39155  64.6666 162.4687 0019525 236.0609 213.9818  2.13101863 46064
COSMOS 2492 (754)       
1 39620U 14012A   19087.01875299 -.00000043  00000-0  10000-3 0  9996
2 39620  65.5997  42.6600 0016451 324.5282 289.1016  2.13103363 39016
COSMOS 2500 (755)       
1 40001U 14032A   19087.11259014 -.00000043  00000-0  00000+0 0  9990
2 40001  65.5405  42.6063 0006265 231.4686 315.7433  2.13102685 37231
COSMOS 2501 (702K)      
1 40315U 14075A   19087.12664836  .00000033  00000-0  00000+0 0  9996
2 40315  64.0838 282.5447 0014572 204.1806 152.5449  2.13098544 33637
COSMOS 2514 (751)       
1 41330U 16008A   19087.21938731 -.00000044  00000-0  00000+0 0  9993
2 41330  65.3423  42.5852 0009946 231.2003 219.4630  2.13103111 24409
COSMOS 2516 (753)       
1 41554U 16032A   19087.01164100  .00000033  00000-0  00000+0 0  9994
2 41554  64.3047 282.4955 0009986 214.5447 327.3968  2.13101686 22009
COSMOS 2522 (752)       
1 42939U 17055A   19087.44589166  .00000036  00000-0  00000+0 0  9991
2 42939  64.5359 282.5260 0005012 251.7657 129.8075  2.13101931 11776
COSMOS 2527 (756)       
1 43508U 18053A   19087.45466326 -.00000026  00000-0  00000+0 0  9996
2 43508  64.8307 162.2010 0007490 235.5452 183.7657  2.13102605  6067
COSMOS 2529 (757)       
1 43687U 18086A   19086.58706488  .00000031  00000-0  00000-0 0  9995
2 43687  64.7494 282.5559 0008151 281.4692 116.9630  2.13102049  3064
